{
  "type": "FeatureCollection",
  "features": [
    {
      "type": "Feature",
      "properties": {
        "norad_id": 35026,
        "name": "COSMOS 2251 DEB",
        "group": "cosmos-2251-debris",
        "lat": 73.8321699996322,
        "lon": 14.48141752484054,
        "alt_km": 663.8436161766531,
        "timestamp": "2025-12-25T22:42:17.408942+00:00",
        "meta_object_name": "COSMOS 2251 DEB",
        "meta_object_id": "1993-036AGP",
        "meta_epoch": "2025-12-25T02:35:01.847328",
        "meta_mean_motion": 14.53631376,
        "meta_eccentricity": 0.00826322,
        "meta_inclination": 74.0477,
        "meta_ra_of_asc_node": 295.4544,
        "meta_arg_of_pericenter": 45.4243,
        "meta_mean_anomaly": 335.8431,
        "meta_ephemeris_type": 0,
        "meta_classification_type": "U",
        "meta_norad_cat_id": 35026,
        "meta_element_set_no": 999,
        "meta_rev_at_epoch": 88323,
        "meta_bstar": 8.4826771e-05,
        "meta_mean_motion_dot": 3.41e-06,
        "meta_mean_motion_ddot": 0,
        "tle_line1": "1 35026U 93036AGP 25359.10766027  .00000341  00000+0  84827-4 0  9990",
        "tle_line2": "2 35026  74.0477 295.4544 0082632  45.4243 335.8431 14.53631376883233"
      },
      "geometry": {
        "type": "Point",
        "coordinates": [
          14.48141752484054,
          73.8321699996322
        ]
      }
    },
    {
      "type": "Feature",
      "properties": {
        "norad_id": 35028,
        "name": "COSMOS 2251 DEB",
        "group": "cosmos-2251-debris",
        "lat": -20.433397832729415,
        "lon": -120.19814058014346,
        "alt_km": 662.2623455066514,
        "timestamp": "2025-12-25T22:42:17.408952+00:00",
        "meta_object_name": "COSMOS 2251 DEB",
        "meta_object_id": "1993-036AGR",
        "meta_epoch": "2025-12-21T04:06:01.501344",
        "meta_mean_motion": 14.56577596,
        "meta_eccentricity": 0.00828284,
        "meta_inclination": 74.0382,
        "meta_ra_of_asc_node": 254.9813,
        "meta_arg_of_pericenter": 26.387,
        "meta_mean_anomaly": 123.709,
        "meta_ephemeris_type": 0,
        "meta_classification_type": "U",
        "meta_norad_cat_id": 35028,
        "meta_element_set_no": 999,
        "meta_rev_at_epoch": 88408,
        "meta_bstar": 7.219211e-05,
        "meta_mean_motion_dot": 3.06e-06,
        "meta_mean_motion_ddot": 0,
        "tle_line1": "1 35028U 93036AGR 25355.17085071  .00000306  00000+0  72192-4 0  9991",
        "tle_line2": "2 35028  74.0382 254.9813 0082828  26.3870 123.7090 14.56577596884085"
      },
      "geometry": {
        "type": "Point",
        "coordinates": [
          -120.19814058014346,
          -20.433397832729415
        ]
      }
    },
    {
      "type": "Feature",
      "properties": {
        "norad_id": 35031,
        "name": "COSMOS 2251 DEB",
        "group": "cosmos-2251-debris",
        "lat": 69.60498257358041,
        "lon": 4.593761612132803,
        "alt_km": 767.0636504430249,
        "timestamp": "2025-12-25T22:42:17.408962+00:00",
        "meta_object_name": "COSMOS 2251 DEB",
        "meta_object_id": "1993-036AGU",
        "meta_epoch": "2025-12-24T22:51:30.580992",
        "meta_mean_motion": 14.38306061,
        "meta_eccentricity": 0.0019335,
        "meta_inclination": 74.0374,
        "meta_ra_of_asc_node": 236.7632,
        "meta_arg_of_pericenter": 328.0242,
        "meta_mean_anomaly": 31.9737,
        "meta_ephemeris_type": 0,
        "meta_classification_type": "U",
        "meta_norad_cat_id": 35031,
        "meta_element_set_no": 999,
        "meta_rev_at_epoch": 65459,
        "meta_bstar": 0.00014948,
        "meta_mean_motion_dot": 4.29e-06,
        "meta_mean_motion_ddot": 0,
        "tle_line1": "1 35031U 93036AGU 25358.95243728  .00000429  00000+0  14948-3 0  9999",
        "tle_line2": "2 35031  74.0374 236.7632 0019335 328.0242  31.9737 14.38306061654591"
      },
      "geometry": {
        "type": "Point",
        "coordinates": [
          4.593761612132803,
          69.60498257358041
        ]
      }
    },
    {
      "type": "Feature",
      "properties": {
        "norad_id": 35032,
        "name": "COSMOS 2251 DEB",
        "group": "cosmos-2251-debris",
        "lat": -39.4550479843084,
        "lon": 175.63452951701814,
        "alt_km": 661.9465102799959,
        "timestamp": "2025-12-25T22:42:17.408973+00:00",
        "meta_object_name": "COSMOS 2251 DEB",
        "meta_object_id": "1993-036AGV",
        "meta_epoch": "2025-12-25T15:40:10.153056",
        "meta_mean_motion": 14.58820143,
        "meta_eccentricity": 0.0067432,
        "meta_inclination": 73.8523,
        "meta_ra_of_asc_node": 342.4037,
        "meta_arg_of_pericenter": 191.3693,
        "meta_mean_anomaly": 290.6947,
        "meta_ephemeris_type": 0,
        "meta_classification_type": "U",
        "meta_norad_cat_id": 35032,
        "meta_element_set_no": 999,
        "meta_rev_at_epoch": 87862,
        "meta_bstar": 0.00083306,
        "meta_mean_motion_dot": 3.991e-05,
        "meta_mean_motion_ddot": 0,
        "tle_line1": "1 35032U 93036AGV 25359.65289529  .00003991  00000+0  83306-3 0  9998",
        "tle_line2": "2 35032  73.8523 342.4037 0067432 191.3693 290.6947 14.58820143878624"
      },
      "geometry": {
        "type": "Point",
        "coordinates": [
          175.63452951701814,
          -39.4550479843084
        ]
      }
    },
    {
      "type": "Feature",
      "properties": {
        "norad_id": 35033,
        "name": "COSMOS 2251 DEB",
        "group": "cosmos-2251-debris",
        "lat": -50.1146336596128,
        "lon": -8.224576838910908,
        "alt_km": 719.5596177129019,
        "timestamp": "2025-12-25T22:42:17.408983+00:00",
        "meta_object_name": "COSMOS 2251 DEB",
        "meta_object_id": "1993-036AGW",
        "meta_epoch": "2025-12-19T05:07:27.625152",
        "meta_mean_motion": 14.50959586,
        "meta_eccentricity": 0.001448,
        "meta_inclination": 74.0251,
        "meta_ra_of_asc_node": 164.3945,
        "meta_arg_of_pericenter": 270.8601,
        "meta_mean_anomaly": 89.0901,
        "meta_ephemeris_type": 0,
        "meta_classification_type": "U",
        "meta_norad_cat_id": 35033,
        "meta_element_set_no": 999,
        "meta_rev_at_epoch": 66021,
        "meta_bstar": 0.00048139,
        "meta_mean_motion_dot": 1.877e-05,
        "meta_mean_motion_ddot": 0,
        "tle_line1": "1 35033U 93036AGW 25353.21351418  .00001877  00000+0  48139-3 0  9998",
        "tle_line2": "2 35033  74.0251 164.3945 0014480 270.8601  89.0901 14.50959586660212"
      },
      "geometry": {
        "type": "Point",
        "coordinates": [
          -8.224576838910908,
          -50.1146336596128
        ]
      }
    },
    {
      "type": "Feature",
      "properties": {
        "norad_id": 35038,
        "name": "COSMOS 2251 DEB",
        "group": "cosmos-2251-debris",
        "lat": 52.27329855322029,
        "lon": 40.477364148260236,
        "alt_km": 756.3055210456541,
        "timestamp": "2025-12-25T22:42:17.408994+00:00",
        "meta_object_name": "COSMOS 2251 DEB",
        "meta_object_id": "1993-036AHB",
        "meta_epoch": "2025-12-16T02:43:57.942048",
        "meta_mean_motion": 14.25166694,
        "meta_eccentricity": 0.01140711,
        "meta_inclination": 74.1077,
        "meta_ra_of_asc_node": 36.5236,
        "meta_arg_of_pericenter": 19.3791,
        "meta_mean_anomaly": 9.3469,
        "meta_ephemeris_type": 0,
        "meta_classification_type": "U",
        "meta_norad_cat_id": 35038,
        "meta_element_set_no": 999,
        "meta_rev_at_epoch": 85617,
        "meta_bstar": 0.00096319549,
        "meta_mean_motion_dot": 2.397e-05,
        "meta_mean_motion_ddot": 0,
        "tle_line1": "1 35038U 93036AHB 25350.11386507  .00002397  00000+0  96320-3 0  9999",
        "tle_line2": "2 35038  74.1077  36.5236 0114071  19.3791   9.3469 14.25166694856178"
      },
      "geometry": {
        "type": "Point",
        "coordinates": [
          40.477364148260236,
          52.27329855322029
        ]
      }
    },
    {
      "type": "Feature",
      "properties": {
        "norad_id": 35043,
        "name": "COSMOS 2251 DEB",
        "group": "cosmos-2251-debris",
        "lat": -27.11343457544646,
        "lon": -151.98968129866657,
        "alt_km": 578.9425318769618,
        "timestamp": "2025-12-25T22:42:17.409004+00:00",
        "meta_object_name": "COSMOS 2251 DEB",
        "meta_object_id": "1993-036AHG",
        "meta_epoch": "2025-12-25T10:23:08.748096",
        "meta_mean_motion": 14.77569208,
        "meta_eccentricity": 0.0095113,
        "meta_inclination": 73.9518,
        "meta_ra_of_asc_node": 20.547,
        "meta_arg_of_pericenter": 227.6564,
        "meta_mean_anomaly": 131.6528,
        "meta_ephemeris_type": 0,
        "meta_classification_type": "U",
        "meta_norad_cat_id": 35043,
        "meta_element_set_no": 999,
        "meta_rev_at_epoch": 67606,
        "meta_bstar": 0.003393,
        "meta_mean_motion_dot": 0.00026195,
        "meta_mean_motion_ddot": 0,
        "tle_line1": "1 35043U 93036AHG 25359.43274014  .00026195  00000+0  33930-2 0  9997",
        "tle_line2": "2 35043  73.9518  20.5470 0095113 227.6564 131.6528 14.77569208676069"
      },
      "geometry": {
        "type": "Point",
        "coordinates": [
          -151.98968129866657,
          -27.11343457544646
        ]
      }
    }
  ]
}